[{"city":"Alfta","areaCode":"0271"},{"city":"Alingsås","areaCode":"0322"},{"city":"Alunda","areaCode":"0174"},{"city":"Alvesta","areaCode":"0472"},{"city":"Anderstorp","areaCode":"0371"},{"city":"Arboga","areaCode":"0589"},{"city":"Arjeplog","areaCode":"0961"},{"city":"Arvidsjaur","areaCode":"0960"},{"city":"Arvika","areaCode":"0570"},{"city":"Askersund","areaCode":"0583"},{"city":"Avesta","areaCode":"0226"},{"city":"Backe","areaCode":"0624"},{"city":"Bastuträsk","areaCode":"0915"},{"city":"Bengtsfors","areaCode":"0531"},{"city":"Bergsjö","areaCode":"0652"},{"city":"Bjurholm","areaCode":"0932"},{"city":"Björna","areaCode":"0662"},{"city":"Boden","areaCode":"0921"},{"city":"Bollnäs","areaCode":"0278"},{"city":"Borlänge","areaCode":"0243"},{"city":"Borås","areaCode":"033"},{"city":"Boxholm","areaCode":"0142"},{"city":"Bredbyn","areaCode":"0661"},{"city":"Bromölla","areaCode":"0456"},{"city":"Bräcke","areaCode":"0693"},{"city":"Burträsk","areaCode":"0914"},{"city":"Byske","areaCode":"0912"},{"city":"Båstad","areaCode":"0431"},{"city":"Charlottenberg","areaCode":"0571"},{"city":"Dannemora","areaCode":"0295"},{"city":"Degerfors","areaCode":"0586"},{"city":"Deje","areaCode":"0552"},{"city":"Delsbo","areaCode":"0653"},{"city":"Dorotea","areaCode":"0942"},{"city":"Ed","areaCode":"0534"},{"city":"Edsbyn","areaCode":"0271"},{"city":"Eksjö","areaCode":"0381"},{"city":"Emmaboda","areaCode":"0471"},{"city":"Enköping","areaCode":"0171"},{"city":"Enviken","areaCode":"0246"},{"city":"Eskilstuna","areaCode":"016"},{"city":"Eslöv","areaCode":"0413"},{"city":"Fagersta","areaCode":"0223"},{"city":"Falkenberg","areaCode":"0346"},{"city":"Falköping","areaCode":"0515"},{"city":"Falun","areaCode":"023"},{"city":"Filipstad","areaCode":"0590"},{"city":"Finspång","areaCode":"0122"},{"city":"Fjugesta","areaCode":"0585"},{"city":"Flen","areaCode":"0157"},{"city":"Floda","areaCode":"0241"},{"city":"Fredrika","areaCode":"0943"},{"city":"Funäsdalen","areaCode":"0684"},{"city":"Furudal","areaCode":"0258"},{"city":"Färgelanda","areaCode":"0528"},{"city":"Föllinge","areaCode":"0645"},{"city":"Gagnef","areaCode":"0241"},{"city":"Gamleby","areaCode":"0493"},{"city":"Gislaved","areaCode":"0371"},{"city":"Gnesta","areaCode":"0158"},{"city":"Gotland","areaCode":"0498"},{"city":"Grebbestad","areaCode":"0525"},{"city":"Grums","areaCode":"0555"},{"city":"Grythyttan","areaCode":"0591"},{"city":"Gränna","areaCode":"0390"},{"city":"Grästorp","areaCode":"0514"},{"city":"Gullspång","areaCode":"0551"},{"city":"Gäddede","areaCode":"0672"},{"city":"Gällivare","areaCode":"0970"},{"city":"Gällö","areaCode":"0693"},{"city":"Gävle","areaCode":"026"},{"city":"Göteborg","areaCode":"031"},{"city":"Götene","areaCode":"0511"},{"city":"Hagfors","areaCode":"0563"},{"city":"Hakkas","areaCode":"0975"},{"city":"Hallen","areaCode":"0643"},{"city":"Hallsberg","areaCode":"0582"},{"city":"Hallstahammar","areaCode":"0220"},{"city":"Hallstavik","areaCode":"0175"},{"city":"Halmstad","areaCode":"035"},{"city":"Hammarstrand","areaCode":"0696"},{"city":"Hammerdal","areaCode":"0644"},{"city":"Hamrånge","areaCode":"0297"},{"city":"Haparanda","areaCode":"0922"},{"city":"Harads","areaCode":"0928"},{"city":"Heby","areaCode":"0224"},{"city":"Hede","areaCode":"0684"},{"city":"Hedemora","areaCode":"0225"},{"city":"Hedesunda","areaCode":"0291"},{"city":"Helsingborg","areaCode":"042"},{"city":"Herrljunga","areaCode":"0513"},{"city":"Hindås","areaCode":"0301"},{"city":"Hjo","areaCode":"0503"},{"city":"Hofors","areaCode":"0290"},{"city":"Hoting","areaCode":"0671"},{"city":"Hova","areaCode":"0506"},{"city":"Hudiksvall","areaCode":"0650"},{"city":"Hultsfred","areaCode":"0495"},{"city":"Huskvarna","areaCode":"036"},{"city":"Husum","areaCode":"0663"},{"city":"Hyltebruk","areaCode":"0345"},{"city":"Hällefors","areaCode":"0591"},{"city":"Härnösand","areaCode":"0611"},{"city":"Hässleholm","areaCode":"0451"},{"city":"Höganäs","areaCode":"042"},{"city":"Högsby","areaCode":"0491"},{"city":"Hörby","areaCode":"0415"},{"city":"Höör","areaCode":"0413"},{"city":"Idre","areaCode":"0253"},{"city":"Insjön","areaCode":"0247"},{"city":"Jokkmokk","areaCode":"0971"},{"city":"Junsele","areaCode":"0621"},{"city":"Järpen","areaCode":"0647"},{"city":"Jönköping","areaCode":"036"},{"city":"Jörn","areaCode":"0916"},{"city":"Kalix","areaCode":"0923"},{"city":"Kalmar","areaCode":"0480"},{"city":"Karlsborg","areaCode":"0505"},{"city":"Karlshamn","areaCode":"0454"},{"city":"Karlsholmsbruk","areaCode":"0294"},{"city":"Karlskoga","areaCode":"0586"},{"city":"Karlskrona","areaCode":"0455"},{"city":"Karlstad","areaCode":"054"},{"city":"Katrineholm","areaCode":"0150"},{"city":"Kil","areaCode":"0554"},{"city":"Kinna","areaCode":"0320"},{"city":"Kiruna","areaCode":"0980"},{"city":"Kisa","areaCode":"0494"},{"city":"Klippan","areaCode":"0435"},{"city":"Kopparberg","areaCode":"0580"},{"city":"Korpilombolo","areaCode":"0977"},{"city":"Kramfors","areaCode":"0612"},{"city":"Kristianstad","areaCode":"044"},{"city":"Kristinehamn","areaCode":"0550"},{"city":"Krokom","areaCode":"0640"},{"city":"Krylbo","areaCode":"0226"},{"city":"Kumla","areaCode":"019"},{"city":"Kungsbacka","areaCode":"0300"},{"city":"Kungsör","areaCode":"0227"},{"city":"Kungälv","areaCode":"0303"},{"city":"Köping","areaCode":"0221"},{"city":"Laholm","areaCode":"0430"},{"city":"Lakaträsk","areaCode":"0925"},{"city":"Landskrona","areaCode":"0418"},{"city":"Laxå","areaCode":"0584"},{"city":"Leksand","areaCode":"0247"},{"city":"Lenhovda","areaCode":"0474"},{"city":"Lerum","areaCode":"0302"},{"city":"Lessebo","areaCode":"0478"},{"city":"Liden","areaCode":"0692"},{"city":"Lidköping","areaCode":"0510"},{"city":"Lindesberg","areaCode":"0581"},{"city":"Linköping","areaCode":"013"},{"city":"Lit","areaCode":"0642"},{"city":"Ljungby","areaCode":"0372"},{"city":"Ljusdal","areaCode":"0651"},{"city":"Los","areaCode":"0657"},{"city":"Ludvika","areaCode":"0240"},{"city":"Luleå","areaCode":"0920"},{"city":"Lund","areaCode":"046"},{"city":"Lycksele","areaCode":"0950"},{"city":"Lysekil","areaCode":"0523"},{"city":"Lövånger","areaCode":"0913"},{"city":"Malmköping","areaCode":"0157"},{"city":"Malmö","areaCode":"040"},{"city":"Malung","areaCode":"0280"},{"city":"Malå","areaCode":"0953"},{"city":"Mariannelund","areaCode":"0496"},{"city":"Mariefred","areaCode":"0159"},{"city":"Mariestad","areaCode":"0501"},{"city":"Markaryd","areaCode":"0433"},{"city":"Mellerud","areaCode":"0530"},{"city":"Mjölby","areaCode":"0142"},{"city":"Molkom","areaCode":"0553"},{"city":"Mora","areaCode":"0250"},{"city":"Motala","areaCode":"0141"},{"city":"Mullsjö","areaCode":"0392"},{"city":"Munkedal","areaCode":"0524"},{"city":"Munkfors","areaCode":"0563"},{"city":"Mönsteås","areaCode":"0499"},{"city":"Nora","areaCode":"0587"},{"city":"Norberg","areaCode":"0223"},{"city":"Nordmaling","areaCode":"0930"},{"city":"Norrköping","areaCode":"011"},{"city":"Norrtälje","areaCode":"0176"},{"city":"Norsjö","areaCode":"0918"},{"city":"Nossebro","areaCode":"0512"},{"city":"Nybro","areaCode":"0481"},{"city":"Nyköping","areaCode":"0155"},{"city":"Nässjö","areaCode":"0380"},{"city":"Näsåker","areaCode":"0622"},{"city":"Ockelbo","areaCode":"0297"},{"city":"Olofström","areaCode":"0454"},{"city":"Orsa","areaCode":"0250"},{"city":"Orust","areaCode":"0304"},{"city":"Osby","areaCode":"0479"},{"city":"Oskarshamn","areaCode":"0491"},{"city":"Oviken","areaCode":"0643"},{"city":"Oxelösund","areaCode":"0155"},{"city":"Pajala","areaCode":"0978"},{"city":"Perstorp","areaCode":"0435"},{"city":"Piteå","areaCode":"0911"},{"city":"Porjus","areaCode":"0973"},{"city":"Ramsele","areaCode":"0623"},{"city":"Rimbo","areaCode":"0175"},{"city":"Robertsfors","areaCode":"0934"},{"city":"Ronneby","areaCode":"0457"},{"city":"Ryd","areaCode":"0459"},{"city":"Rydaholm","areaCode":"0472"},{"city":"Råneå","areaCode":"0924"},{"city":"Rätan","areaCode":"0682"},{"city":"Rättvik","areaCode":"0248"},{"city":"Sala","areaCode":"0224"},{"city":"Sandviken","areaCode":"026"},{"city":"Simrishamn","areaCode":"0414"},{"city":"Sjöbo","areaCode":"0416"},{"city":"Skara","areaCode":"0511"},{"city":"Skellefteå","areaCode":"0910"},{"city":"Skinnskatteberg","areaCode":"0222"},{"city":"Skänninge","areaCode":"0142"},{"city":"Skärplinge","areaCode":"0294"},{"city":"Skövde","areaCode":"0500"},{"city":"Smedjebacken","areaCode":"0240"},{"city":"Sollefteå","areaCode":"0620"},{"city":"Sorsele","areaCode":"0952"},{"city":"Stockholm","areaCode":"08"},{"city":"Storuman","areaCode":"0951"},{"city":"Storvik","areaCode":"0290"},{"city":"Strängnäs","areaCode":"0152"},{"city":"Strömsnäsbruk","areaCode":"0433"},{"city":"Strömstad","areaCode":"0526"},{"city":"Strömsund","areaCode":"0670"},{"city":"Stugun","areaCode":"0695"},{"city":"Sundsvall","areaCode":"060"},{"city":"Sunne","areaCode":"0565"},{"city":"Surahammar","areaCode":"0220"},{"city":"Svalöv","areaCode":"0418"},{"city":"Svartå","areaCode":"0585"},{"city":"Sveg","areaCode":"0680"},{"city":"Svenljunga","areaCode":"0325"},{"city":"Svenstavik","areaCode":"0687"},{"city":"Svärdsjö","areaCode":"0246"},{"city":"Sysslebäck","areaCode":"0564"},{"city":"Säffle","areaCode":"0533"},{"city":"Särna","areaCode":"0253"},{"city":"Säter","areaCode":"0225"},{"city":"Sävsjö","areaCode":"0382"},{"city":"Söderfors","areaCode":"0293"},{"city":"Söderhamn","areaCode":"0270"},{"city":"Söderköping","areaCode":"0121"},{"city":"Sölvesborg","areaCode":"0456"},{"city":"Tibro","areaCode":"0504"},{"city":"Tidaholm","areaCode":"0502"},{"city":"Tierp","areaCode":"0293"},{"city":"Timrå","areaCode":"060"},{"city":"Tingsryd","areaCode":"0477"},{"city":"Tjörn","areaCode":"0304"},{"city":"Tomelilla","areaCode":"0417"},{"city":"Torpshammar","areaCode":"0691"},{"city":"Torsby","areaCode":"0560"},{"city":"Torshälla","areaCode":"016"},{"city":"Torsås","areaCode":"0486"},{"city":"Torup","areaCode":"0345"},{"city":"Tranemo","areaCode":"0325"},{"city":"Tranås","areaCode":"0140"},{"city":"Trelleborg","areaCode":"0410"},{"city":"Trollhättan","areaCode":"0520"},{"city":"Trosa","areaCode":"0156"},{"city":"Tärnaby","areaCode":"0954"},{"city":"Tärnsjö","areaCode":"0292"},{"city":"Töreboda","areaCode":"0506"},{"city":"Uddevalla","areaCode":"0522"},{"city":"Ullånger","areaCode":"0613"},{"city":"Ulricehamn","areaCode":"0321"},{"city":"Umeå","areaCode":"090"},{"city":"Uppsala","areaCode":"018"},{"city":"Vadstena","areaCode":"0143"},{"city":"Vaggeryd","areaCode":"0393"},{"city":"Vagnhärad","areaCode":"0156"},{"city":"Valdemarsvik","areaCode":"0123"},{"city":"Vansbro","areaCode":"0281"},{"city":"Vara","areaCode":"0512"},{"city":"Varberg","areaCode":"0340"},{"city":"Vetlanda","areaCode":"0383"},{"city":"Vikbolandet","areaCode":"0125"},{"city":"Vilhelmina","areaCode":"0940"},{"city":"Vimmerby","areaCode":"0492"},{"city":"Vindeln","areaCode":"0933"},{"city":"Vingåker","areaCode":"0151"},{"city":"Virserum","areaCode":"0495"},{"city":"Visby","areaCode":"0498"},{"city":"Vittangi","areaCode":"0981"},{"city":"Vuollerim","areaCode":"0976"},{"city":"Vårgårda","areaCode":"0322"},{"city":"Vänersborg","areaCode":"0521"},{"city":"Vännäs","areaCode":"0935"},{"city":"Värnamo","areaCode":"0370"},{"city":"Västervik","areaCode":"0490"},{"city":"Västerås","areaCode":"021"},{"city":"Växjö","areaCode":"0470"},{"city":"Ystad","areaCode":"0411"},{"city":"Åmotsfors","areaCode":"0571"},{"city":"Åmål","areaCode":"0532"},{"city":"Ånge","areaCode":"0690"},{"city":"Åre","areaCode":"0647"},{"city":"Årjäng","areaCode":"0573"},{"city":"Åseda","areaCode":"0474"},{"city":"Åsele","areaCode":"0941"},{"city":"Åtvidaberg","areaCode":"0120"},{"city":"Älmhult","areaCode":"0476"},{"city":"Älvdalen","areaCode":"0251"},{"city":"Älvsbyn","areaCode":"0929"},{"city":"Ängelholm","areaCode":"0431"},{"city":"Ödeshög","areaCode":"0144"},{"city":"Öland","areaCode":"0485"},{"city":"Örbyhus","areaCode":"0295"},{"city":"Örebro","areaCode":"019"},{"city":"Öregrund","areaCode":"0173"},{"city":"Örnsköldsvik","areaCode":"0660"},{"city":"Österfärdebo","areaCode":"0291"},{"city":"Östersund","areaCode":"063"},{"city":"Östervåla","areaCode":"0292"},{"city":"Östhammar","areaCode":"0173"},{"city":"Överkalix","areaCode":"0926"},{"city":"Övertorneå","areaCode":"0927"}]